[{"OBJECT_NAME":"STARLINK-6346","OBJECT_ID":"2023-094AB","EPOCH":"2026-03-09T22:00:01.999584","MEAN_MOTION":15.04993422,"ECCENTRICITY":3.488e-5,"INCLINATION":43.0012,"RA_OF_ASC_NODE":16.5671,"ARG_OF_PERICENTER":306.4741,"MEAN_ANOMALY":232.086,"EPHEMERIS_TYPE":0,"CLASSIFICATION_TYPE":"U","NORAD_CAT_ID":57243,"ELEMENT_SET_NO":999,"REV_AT_EPOCH":562,"BSTAR":0.0020150457,"MEAN_MOTION_DOT":0.00028977,"MEAN_MOTION_DDOT":0},{"OBJECT_NAME":"METEOR 2-5 DEB","OBJECT_ID":"1979-095D","EPOCH":"2026-03-07T02:20:18.720096","MEAN_MOTION":15.07655153,"ECCENTRICITY":0.00106351,"INCLINATION":81.1653,"RA_OF_ASC_NODE":357.8549,"ARG_OF_PERICENTER":34.5561,"MEAN_ANOMALY":325.6353,"EPHEMERIS_TYPE":0,"CLASSIFICATION_TYPE":"U","NORAD_CAT_ID":28555,"ELEMENT_SET_NO":999,"REV_AT_EPOCH":23235,"BSTAR":0.011673296,"MEAN_MOTION_DOT":0.00182479,"MEAN_MOTION_DDOT":0}]
